{
  "type": "FeatureCollection",
  "features": [
    {
      "type": "Feature",
      "properties": {
        "norad_id": 30837,
        "name": "FENGYUN 1C DEB",
        "group": "fengyun-1c-debris",
        "lat": -81.23287544116135,
        "lon": 53.29153071597821,
        "alt_km": 867.3887794790808,
        "timestamp": "2025-12-10T23:33:13.096476+00:00",
        "meta_object_name": "FENGYUN 1C DEB",
        "meta_object_id": "1999-025AVX",
        "meta_epoch": "2025-12-10T11:06:24.465024",
        "meta_mean_motion": 14.1451715,
        "meta_eccentricity": 0.00328477,
        "meta_inclination": 98.6782,
        "meta_ra_of_asc_node": 330.7634,
        "meta_arg_of_pericenter": 139.8104,
        "meta_mean_anomaly": 11.6681,
        "meta_ephemeris_type": 0,
        "meta_classification_type": "U",
        "meta_norad_cat_id": 30837,
        "meta_element_set_no": 999,
        "meta_rev_at_epoch": 96786,
        "meta_bstar": 0.00047058361,
        "meta_mean_motion_dot": 8.65e-06,
        "meta_mean_motion_ddot": 0,
        "tle_line1": "1 30837U 99025AVX 25344.46278316  .00000865  00000+0  47058-3 0  9996",
        "tle_line2": "2 30837  98.6782 330.7634 0032847 139.8104  11.6681 14.14517150967867"
      },
      "geometry": {
        "type": "Point",
        "coordinates": [
          53.29153071597821,
          -81.23287544116135
        ]
      }
    },
    {
      "type": "Feature",
      "properties": {
        "norad_id": 30838,
        "name": "FENGYUN 1C DEB",
        "group": "fengyun-1c-debris",
        "lat": 64.90483358450106,
        "lon": -121.14658789287341,
        "alt_km": 729.933914016412,
        "timestamp": "2025-12-10T23:33:13.096485+00:00",
        "meta_object_name": "FENGYUN 1C DEB",
        "meta_object_id": "1999-025AVY",
        "meta_epoch": "2025-12-10T00:01:23.480544",
        "meta_mean_motion": 14.4765373,
        "meta_eccentricity": 0.00338379,
        "meta_inclination": 99.0418,
        "meta_ra_of_asc_node": 257.6834,
        "meta_arg_of_pericenter": 166.9716,
        "meta_mean_anomaly": 193.2356,
        "meta_ephemeris_type": 0,
        "meta_classification_type": "U",
        "meta_norad_cat_id": 30838,
        "meta_element_set_no": 999,
        "meta_rev_at_epoch": 97274,
        "meta_bstar": 0.0036643,
        "meta_mean_motion_dot": 0.00013583,
        "meta_mean_motion_ddot": 0,
        "tle_line1": "1 30838U 99025AVY 25344.00096621  .00013583  00000+0  36643-2 0  9992",
        "tle_line2": "2 30838  99.0418 257.6834 0033837 166.9716 193.2356 14.47653730972748"
      },
      "geometry": {
        "type": "Point",
        "coordinates": [
          -121.14658789287341,
          64.90483358450106
        ]
      }
    },
    {
      "type": "Feature",
      "properties": {
        "norad_id": 30840,
        "name": "FENGYUN 1C DEB",
        "group": "fengyun-1c-debris",
        "lat": 68.42713520653426,
        "lon": -162.71844299413095,
        "alt_km": 690.2526305548836,
        "timestamp": "2025-12-10T23:33:13.096494+00:00",
        "meta_object_name": "FENGYUN 1C DEB",
        "meta_object_id": "1999-025AWA",
        "meta_epoch": "2025-12-10T00:03:22.176864",
        "meta_mean_motion": 14.61059408,
        "meta_eccentricity": 0.02180643,
        "meta_inclination": 98.0237,
        "meta_ra_of_asc_node": 355.4302,
        "meta_arg_of_pericenter": 19.2023,
        "meta_mean_anomaly": 341.7237,
        "meta_ephemeris_type": 0,
        "meta_classification_type": "U",
        "meta_norad_cat_id": 30840,
        "meta_element_set_no": 999,
        "meta_rev_at_epoch": 73091,
        "meta_bstar": 0.0010591488,
        "meta_mean_motion_dot": 7.247e-05,
        "meta_mean_motion_ddot": 0,
        "tle_line1": "1 30840U 99025AWA 25344.00234001  .00007247  00000+0  10591-2 0  9995",
        "tle_line2": "2 30840  98.0237 355.4302 0218064  19.2023 341.7237 14.61059408730911"
      },
      "geometry": {
        "type": "Point",
        "coordinates": [
          -162.71844299413095,
          68.42713520653426
        ]
      }
    },
    {
      "type": "Feature",
      "properties": {
        "norad_id": 30843,
        "name": "FENGYUN 1C DEB",
        "group": "fengyun-1c-debris",
        "lat": -12.04685960676774,
        "lon": 58.416707175092476,
        "alt_km": 798.4656509734532,
        "timestamp": "2025-12-10T23:33:13.096502+00:00",
        "meta_object_name": "FENGYUN 1C DEB",
        "meta_object_id": "1999-025AWD",
        "meta_epoch": "2025-12-10T10:23:02.697504",
        "meta_mean_motion": 14.52469394,
        "meta_eccentricity": 0.01488893,
        "meta_inclination": 98.8426,
        "meta_ra_of_asc_node": 55.9348,
        "meta_arg_of_pericenter": 126.547,
        "meta_mean_anomaly": 234.9537,
        "meta_ephemeris_type": 0,
        "meta_classification_type": "U",
        "meta_norad_cat_id": 30843,
        "meta_element_set_no": 999,
        "meta_rev_at_epoch": 99291,
        "meta_bstar": 0.00030969995,
        "meta_mean_motion_dot": 1.405e-05,
        "meta_mean_motion_ddot": 0,
        "tle_line1": "1 30843U 99025AWD 25344.43267011  .00001405  00000+0  30970-3 0  9996",
        "tle_line2": "2 30843  98.8426  55.9348 0148889 126.5470 234.9537 14.52469394992914"
      },
      "geometry": {
        "type": "Point",
        "coordinates": [
          58.416707175092476,
          -12.04685960676774
        ]
      }
    },
    {
      "type": "Feature",
      "properties": {
        "norad_id": 30845,
        "name": "FENGYUN 1C DEB",
        "group": "fengyun-1c-debris",
        "lat": 35.57377610195163,
        "lon": -20.28260073646288,
        "alt_km": 1042.8675940189742,
        "timestamp": "2025-12-10T23:33:13.096511+00:00",
        "meta_object_name": "FENGYUN 1C DEB",
        "meta_object_id": "1999-025AWF",
        "meta_epoch": "2025-12-10T06:15:07.357248",
        "meta_mean_motion": 13.76855009,
        "meta_eccentricity": 0.0192049,
        "meta_inclination": 98.3792,
        "meta_ra_of_asc_node": 345.1328,
        "meta_arg_of_pericenter": 277.2537,
        "meta_mean_anomaly": 145.6303,
        "meta_ephemeris_type": 0,
        "meta_classification_type": "U",
        "meta_norad_cat_id": 30845,
        "meta_element_set_no": 999,
        "meta_rev_at_epoch": 94209,
        "meta_bstar": 0.00052845,
        "meta_mean_motion_dot": 5.58e-06,
        "meta_mean_motion_ddot": 0,
        "tle_line1": "1 30845U 99025AWF 25344.26050182  .00000558  00000+0  52845-3 0  9991",
        "tle_line2": "2 30845  98.3792 345.1328 0192049 277.2537 145.6303 13.76855009942094"
      },
      "geometry": {
        "type": "Point",
        "coordinates": [
          -20.28260073646288,
          35.57377610195163
        ]
      }
    },
    {
      "type": "Feature",
      "properties": {
        "norad_id": 30846,
        "name": "FENGYUN 1C DEB",
        "group": "fengyun-1c-debris",
        "lat": -21.8079953676339,
        "lon": -25.73681081698334,
        "alt_km": 788.0167154500741,
        "timestamp": "2025-12-10T23:33:13.096522+00:00",
        "meta_object_name": "FENGYUN 1C DEB",
        "meta_object_id": "1999-025AWG",
        "meta_epoch": "2025-12-10T11:03:21.845664",
        "meta_mean_motion": 14.41524021,
        "meta_eccentricity": 0.0054049,
        "meta_inclination": 99.3211,
        "meta_ra_of_asc_node": 157.4636,
        "meta_arg_of_pericenter": 343.1586,
        "meta_mean_anomaly": 38.4341,
        "meta_ephemeris_type": 0,
        "meta_classification_type": "U",
        "meta_norad_cat_id": 30846,
        "meta_element_set_no": 999,
        "meta_rev_at_epoch": 97897,
        "meta_bstar": 0.0012356279,
        "meta_mean_motion_dot": 4.034e-05,
        "meta_mean_motion_ddot": 0,
        "tle_line1": "1 30846U 99025AWG 25344.46066951  .00004034  00000+0  12356-2 0  9990",
        "tle_line2": "2 30846  99.3211 157.4636 0054049 343.1586  38.4341 14.41524021978979"
      },
      "geometry": {
        "type": "Point",
        "coordinates": [
          -25.73681081698334,
          -21.8079953676339
        ]
      }
    },
    {
      "type": "Feature",
      "properties": {
        "norad_id": 30847,
        "name": "FENGYUN 1C DEB",
        "group": "fengyun-1c-debris",
        "lat": 68.39705958751162,
        "lon": 122.32799730645425,
        "alt_km": 834.2106025148605,
        "timestamp": "2025-12-10T23:33:13.096531+00:00",
        "meta_object_name": "FENGYUN 1C DEB",
        "meta_object_id": "1999-025AWH",
        "meta_epoch": "2025-12-10T09:55:25.165344",
        "meta_mean_motion": 14.16993414,
        "meta_eccentricity": 0.00653647,
        "meta_inclination": 98.7321,
        "meta_ra_of_asc_node": 144.6083,
        "meta_arg_of_pericenter": 334.9122,
        "meta_mean_anomaly": 79.1265,
        "meta_ephemeris_type": 0,
        "meta_classification_type": "U",
        "meta_norad_cat_id": 30847,
        "meta_element_set_no": 999,
        "meta_rev_at_epoch": 96022,
        "meta_bstar": 0.0027150414,
        "meta_mean_motion_dot": 5.53e-05,
        "meta_mean_motion_ddot": 0,
        "tle_line1": "1 30847U 99025AWH 25344.41348571  .00005530  00000+0  27150-2 0  9997",
        "tle_line2": "2 30847  98.7321 144.6083 0065364 334.9122  79.1265 14.16993414960229"
      },
      "geometry": {
        "type": "Point",
        "coordinates": [
          122.32799730645425,
          68.39705958751162
        ]
      }
    }
  ]
}